ONEWEB-0473             
1 51653U 22012AH  26154.20392108  .00000654  00000+0  18357-2 0  9990
2 51653  87.8842  39.0620 0001887  82.7846 277.3496 13.10375118207476
ONEWEB-0474             
1 51654U 22012AJ  26154.65375717  .00000264  00000+0  72106-3 0  9997
2 51654  87.8860  38.9542 0001793  73.1986 286.9338 13.10376880207527
ONEWEB-0475             
1 51655U 22012AK  26154.62976710  .00000011  00000+0 -60235-5 0  9998
2 51655  87.9140   8.5697 0001903  69.2257 290.9078 13.17650386211900
ONEWEB-0490             
1 54113U 22138A   26154.48755551 -.00000087  00000+0 -24944-3 0  9990
2 54113  87.9171 307.6968 0001584  93.3842 266.7472 13.19726669175024
ONEWEB-0492             
1 54114U 22138B   26154.43702493 -.00001597  00000+0 -40219-2 0  9992
2 54114  87.9148 307.7086 0002181 104.2111 255.9264 13.19717593175021
ONEWEB-0495             
1 54115U 22138C   26154.49071352 -.00000006  00000+0 -47461-4 0  9994
2 54115  87.9159 307.7010 0001203  86.4008 273.7262 13.19727525175012
ONEWEB-0497             
1 54116U 22138D   26154.50334986  .00000026  00000+0  31794-4 0  9994
2 54116  87.9163 307.6896 0001730  95.1163 265.0167 13.19727040175002
ONEWEB-0499             
1 54117U 22138E   26154.48678030  .00000160  00000+0  36810-3 0  9995
2 54117  87.9149 307.7032 0001526  87.1934 272.9373 13.19725818175018
ONEWEB-0500             
1 54118U 22138F   26154.48912808  .00000522  00000+0  12724-2 0  9999
2 54118  87.9180 307.6978 0001829 108.9232 251.2100 13.19725612175022
ONEWEB-0501             
1 54119U 22138G   26154.44333992  .00000040  00000+0  68226-4 0  9992
2 54119  87.9163 307.7046 0001627  90.7614 269.3705 13.19727393174993
ONEWEB-0502             
1 54120U 22138H   26153.82256597  .00000034  00000+0  52027-4 0  9995
2 54120  87.9167 307.8167 0001682  88.0475 272.0850 13.19727349174937
ONEWEB-0503             
1 54121U 22138J   26152.44682126  .00000112  00000+0  24712-3 0  9990
2 54121  87.9166 308.0965 0002022  90.2839 269.8526 13.19727739174740
ONEWEB-0504             
1 54122U 22138K   26154.48124098  .00000046  00000+0  83115-4 0  9995
2 54122  87.9166 307.6964 0001685  89.8092 270.3233 13.19726137175029
ONEWEB-0505             
1 54123U 22138L   26154.32645868 -.00000021  00000+0 -84783-4 0  9999
2 54123  87.9166 307.7277 0001530  85.5692 274.5616 13.19725389174989
ONEWEB-0506             
1 54124U 22138M   26154.45281143  .00000068  00000+0  13656-3 0  9995
2 54124  87.9172 307.7007 0001557  88.5260 271.6051 13.19726455174998
ONEWEB-0507             
1 54125U 22138N   26154.47334509  .00000019  00000+0  15128-4 0  9996
2 54125  87.9158 307.7091 0001615  92.8688 267.2630 13.19726002175042
ONEWEB-0508             
1 54126U 22138P   26154.47017173  .00000097  00000+0  20997-3 0  9997
2 54126  87.9157 307.7093 0001373  94.2968 265.8322 13.19727524175022
ONEWEB-0509             
1 54127U 22138Q   26154.44491063  .00000164  00000+0  37695-3 0  9997
2 54127  87.9162 307.7015 0001694  94.6357 265.4969 13.19727333174991
ONEWEB-0510             
1 54128U 22138R   26154.26853363  .00000076  00000+0  15451-3 0  9991
2 54128  87.9191 277.2087 0002416 106.2200 253.9199 13.20773025177445
ONEWEB-0511             
1 54129U 22138S   26154.44176201  .00000001  00000+0 -29086-4 0  9990
2 54129  87.9168 307.7074 0001911  86.9050 273.2301 13.19725483175026
ONEWEB-0512             
1 54130U 22138T   26153.82731244  .00000202  00000+0  47141-3 0  9990
2 54130  87.9163 307.8352 0001790  87.1194 273.0144 13.19723002174915
ONEWEB-0513             
1 54131U 22138U   26154.44512301  .00000168  00000+0  38366-3 0  9991
2 54131  87.9165 307.6573 0001730  64.5278 295.6034 13.20268913174901
ONEWEB-0514             
1 54132U 22138V   26154.44964676  .00000056  00000+0  10836-3 0  9996
2 54132  87.9168 307.7031 0001950  96.0459 264.0896 13.19726766175012
ONEWEB-0515             
1 54133U 22138W   26154.33080020 -.00000045  00000+0 -14171-3 0  9993
2 54133  87.9191 277.1917 0002362 121.7597 238.3767 13.20771972177473
ONEWEB-0516             
1 54134U 22138X   26154.50018493  .00000182  00000+0  42148-3 0  9993
2 54134  87.9143 307.7024 0001610 103.2682 256.8630 13.19727602175027
ONEWEB-0517             
1 54135U 22138Y   26154.47965331 -.00000127  00000+0 -34929-3 0  9991
2 54135  87.9165 307.6963 0002086  89.8865 270.2507 13.19726757175026
ONEWEB-0518             
1 54136U 22138Z   26153.81629712 -.00000010  00000+0 -57844-4 0  9992
2 54136  87.9155 307.8385 0001680 101.2384 258.8937 13.19726806174933
ONEWEB-0519             
1 54137U 22138AA  26154.44808546  .00000227  00000+0  53369-3 0  9992
2 54137  87.9169 307.7027 0001978  91.5039 268.6320 13.19724476175026
ONEWEB-0520             
1 54138U 22138AB  26154.48281992 -.00000042  00000+0 -13626-3 0  9996
2 54138  87.9168 307.6965 0001546  93.2630 266.8680 13.19726628175012
ONEWEB-0521             
1 54139U 22138AC  26154.59180446  .00000015  00000+0  56446-5 0  9998
2 54139  87.9162 307.6620 0001995  92.6315 267.5046 13.19726533174979
